[{"OBJECT_NAME":"STARLINK-30171","OBJECT_ID":"2023-107N","EPOCH":"2026-03-09T22:00:01.999584","MEAN_MOTION":15.13070557,"ECCENTRICITY":0.0001116,"INCLINATION":43.0002,"RA_OF_ASC_NODE":336.977,"ARG_OF_PERICENTER":314.263,"MEAN_ANOMALY":147.3723,"EPHEMERIS_TYPE":0,"CLASSIFICATION_TYPE":"U","NORAD_CAT_ID":57469,"ELEMENT_SET_NO":999,"REV_AT_EPOCH":578,"BSTAR":0.0011019622,"MEAN_MOTION_DOT":0.00019669,"MEAN_MOTION_DDOT":0},{"OBJECT_NAME":"CZ-4C DEB","OBJECT_ID":"2018-031H","EPOCH":"2026-03-09T10:10:58.582560","MEAN_MOTION":15.14033759,"ECCENTRICITY":0.00199639,"INCLINATION":98.1663,"RA_OF_ASC_NODE":242.9335,"ARG_OF_PERICENTER":272.748,"MEAN_ANOMALY":87.1465,"EPHEMERIS_TYPE":0,"CLASSIFICATION_TYPE":"U","NORAD_CAT_ID":43266,"ELEMENT_SET_NO":999,"REV_AT_EPOCH":43166,"BSTAR":0.00079064643,"MEAN_MOTION_DOT":0.00014379,"MEAN_MOTION_DDOT":0}]
